{
    "links": {
        "self": "http://www.neowsapp.com/rest/v1/neo/3297630?api_key=iIulBulltgU6a56xZRHN4H3l9WmuAYTsLGpBGhQ2"
    },
    "id": "3297630",
    "neo_reference_id": "3297630",
    "name": "(2005 VM1)",
    "designation": "2005 VM1",
    "nasa_jpl_url": "http://ssd.jpl.nasa.gov/sbdb.cgi?sstr=3297630",
    "absolute_magnitude_h": 22.8,
    "estimated_diameter": {
        "kilometers": {
            "estimated_diameter_min": 0.0732073989,
            "estimated_diameter_max": 0.1636967205
        },
        "meters": {
            "estimated_diameter_min": 73.2073989347,
            "estimated_diameter_max": 163.696720474
        },
        "miles": {
            "estimated_diameter_min": 0.0454889547,
            "estimated_diameter_max": 0.1017163949
        },
        "feet": {
            "estimated_diameter_min": 240.181762721,
            "estimated_diameter_max": 537.0627483999
        }
    },
    "is_potentially_hazardous_asteroid": false,
    "close_approach_data": [
        {
            "close_approach_date": "2005-11-06",
            "close_approach_date_full": "2005-Nov-06 01:45",
            "epoch_date_close_approach": 1131241500000,
            "relative_velocity": {
                "kilometers_per_second": "15.7315429456",
                "kilometers_per_hour": "56633.554604264",
                "miles_per_hour": "35189.8884150773"
            },
            "miss_distance": {
                "astronomical": "0.2141206922",
                "lunar": "83.2929492658",
                "kilometers": "32031999.476045614",
                "miles": "19903761.5247289132"
            },
            "orbiting_body": "Earth"
        }
    ],
    "orbital_data": {
        "orbit_id": "8",
        "orbit_determination_date": "2017-04-06 09:09:56",
        "first_observation_date": "2005-11-04",
        "last_observation_date": "2005-11-19",
        "data_arc_in_days": 15,
        "observations_used": 19,
        "orbit_uncertainty": "8",
        "minimum_orbit_intersection": ".2062",
        "jupiter_tisserand_invariant": "4.417",
        "epoch_osculation": "2453680.5",
        "eccentricity": ".196254703513448",
        "semi_major_axis": "1.479719426394098",
        "inclination": "30.53493953727433",
        "ascending_node_longitude": "45.76074142116684",
        "orbital_period": "657.4572063967411",
        "perihelion_distance": "1.189317529084035",
        "perihelion_argument": "342.416845497962",
        "aphelion_distance": "1.770121323704161",
        "perihelion_time": "2453658.496400871514",
        "mean_anomaly": "12.04838217481621",
        "mean_motion": ".5475641555030105",
        "equinox": "J2000",
        "orbit_class": {
            "orbit_class_type": "AMO",
            "orbit_class_description": "Near-Earth asteroid orbits similar to that of 1221 Amor",
            "orbit_class_range": "1.017 AU < q (perihelion) < 1.3 AU"
        }
    },
    "is_sentry_object": false
}